UNKNOWN                 
1 89132U          26009.27016501  .00009101  00000+0  11755-1 0  9992
2 89132  63.4311  18.4492 2934486 319.5934  21.9689  8.86967450327551
UNKNOWN                 
1 89146U          26011.52898656  .00005067  00000+0  92997-3 0  9993
2 89146  98.2497 305.2573 0092255 323.1053  36.3825 14.63436284633239
UNKNOWN                 
1 89161U          26011.51366610  .00161579  00000+0  30786-2 0  9997
2 89161  97.6537  33.7334 0027581 321.7242  38.2048 15.47183551553177
UNKNOWN                 
1 89172U          26006.51423384  .00015950  00000+0  25682-2 0  9995
2 89172  82.0623 198.6851 0288831 205.0392 153.6564 14.47266700605478
UNKNOWN                 
1 89177U          26007.37238368  .00000101  00000+0  91335-4 0  9993
2 89177  82.9200 250.1151 0033684  71.8243 288.6575 13.73731157 66347
UNKNOWN                 
1 89183U          26009.49761865  .00000599  00000+0  56261-3 0  9997
2 89183  99.2195 284.9419 0131185  82.5633 279.0404 13.81616323610804
UNKNOWN                 
1 89184U          26009.90855167  .00020971  00000+0  25970-2 0  9991
2 89184  98.3879 240.9667 0011796  35.6906 324.5092 14.82687484496346
UNKNOWN                 
1 89213U          26011.46759238  .00000484  00000+0  33378-3 0  9999
2 89213  98.7780 248.0486 0228462  45.0145 316.9283 13.91625451456801
UNKNOWN                 
1 89251U          26011.00107875  .00008154  00000+0  47847-2 0  9992
2 89251  62.4788 325.1667 2830147 103.3780 289.4506  9.25382582375899
UNKNOWN                 
1 89261U          26008.23999919  .00001132  00000+0  34856-3 0  9998
2 89261  98.1556   6.5189 0013981  79.3594 280.9171 14.43180462537635
UNKNOWN                 
1 89304U          26007.51244220  .00031055  00000+0  32744-1 0  9993
2 89304  84.3018  97.1354 2862546 312.2832  35.9082  9.05031645440731
UNKNOWN                 
1 89349U          26010.70787832 -.00000157  00000+0 -57396-3 0  9991
2 89349  90.2448   7.9938 0029356 187.6906 172.3768 12.96256078482509
