CCSDS_OMM_VERS = 2.0
CREATION_DATE  = 
ORIGINATOR     = 

OBJECT_NAME    = UNKNOWN
OBJECT_ID      = 
CENTER_NAME    = EARTH
REF_FRAME      = TEME
TIME_SYSTEM    = UTC
MEAN_ELEMENT_THEORY = SGP/SGP4

EPOCH          = 2026-01-09T06:29:02.256864
MEAN_MOTION    = 8.86967450
ECCENTRICITY   = .2934486
INCLINATION    = 63.4311
RA_OF_ASC_NODE = 18.4492
ARG_OF_PERICENTER = 319.5934
MEAN_ANOMALY   = 21.9689

EPHEMERIS_TYPE = 0
CLASSIFICATION_TYPE = U
NORAD_CAT_ID   = 89132
ELEMENT_SET_NO = 999
REV_AT_EPOCH   = 32755
BSTAR          = .11755E-1
MEAN_MOTION_DOT = .9101E-4
MEAN_MOTION_DDOT = 0

CCSDS_OMM_VERS = 2.0
CREATION_DATE  = 
ORIGINATOR     = 

OBJECT_NAME    = UNKNOWN
OBJECT_ID      = 
CENTER_NAME    = EARTH
REF_FRAME      = TEME
TIME_SYSTEM    = UTC
MEAN_ELEMENT_THEORY = SGP/SGP4

EPOCH          = 2026-01-11T12:41:44.438784
MEAN_MOTION    = 14.63436284
ECCENTRICITY   = .0092255
INCLINATION    = 98.2497
RA_OF_ASC_NODE = 305.2573
ARG_OF_PERICENTER = 323.1053
MEAN_ANOMALY   = 36.3825

EPHEMERIS_TYPE = 0
CLASSIFICATION_TYPE = U
NORAD_CAT_ID   = 89146
ELEMENT_SET_NO = 999
REV_AT_EPOCH   = 63323
BSTAR          = .92997E-3
MEAN_MOTION_DOT = .5067E-4
MEAN_MOTION_DDOT = 0

CCSDS_OMM_VERS = 2.0
CREATION_DATE  = 
ORIGINATOR     = 

OBJECT_NAME    = UNKNOWN
OBJECT_ID      = 
CENTER_NAME    = EARTH
REF_FRAME      = TEME
TIME_SYSTEM    = UTC
MEAN_ELEMENT_THEORY = SGP/SGP4

EPOCH          = 2026-01-11T12:19:40.751040
MEAN_MOTION    = 15.47183551
ECCENTRICITY   = .0027581
INCLINATION    = 97.6537
RA_OF_ASC_NODE = 33.7334
ARG_OF_PERICENTER = 321.7242
MEAN_ANOMALY   = 38.2048

EPHEMERIS_TYPE = 0
CLASSIFICATION_TYPE = U
NORAD_CAT_ID   = 89161
ELEMENT_SET_NO = 999
REV_AT_EPOCH   = 55317
BSTAR          = .30786E-2
MEAN_MOTION_DOT = .161579E-2
MEAN_MOTION_DDOT = 0

CCSDS_OMM_VERS = 2.0
CREATION_DATE  = 
ORIGINATOR     = 

OBJECT_NAME    = UNKNOWN
OBJECT_ID      = 
CENTER_NAME    = EARTH
REF_FRAME      = TEME
TIME_SYSTEM    = UTC
MEAN_ELEMENT_THEORY = SGP/SGP4

EPOCH          = 2026-01-06T12:20:29.803776
MEAN_MOTION    = 14.47266700
ECCENTRICITY   = .0288831
INCLINATION    = 82.0623
RA_OF_ASC_NODE = 198.6851
ARG_OF_PERICENTER = 205.0392
MEAN_ANOMALY   = 153.6564

EPHEMERIS_TYPE = 0
CLASSIFICATION_TYPE = U
NORAD_CAT_ID   = 89172
ELEMENT_SET_NO = 999
REV_AT_EPOCH   = 60547
BSTAR          = .25682E-2
MEAN_MOTION_DOT = .1595E-3
MEAN_MOTION_DDOT = 0

CCSDS_OMM_VERS = 2.0
CREATION_DATE  = 
ORIGINATOR     = 

OBJECT_NAME    = UNKNOWN
OBJECT_ID      = 
CENTER_NAME    = EARTH
REF_FRAME      = TEME
TIME_SYSTEM    = UTC
MEAN_ELEMENT_THEORY = SGP/SGP4

EPOCH          = 2026-01-07T08:56:13.949952
MEAN_MOTION    = 13.73731157
ECCENTRICITY   = .0033684
INCLINATION    = 82.9200
RA_OF_ASC_NODE = 250.1151
ARG_OF_PERICENTER = 71.8243
MEAN_ANOMALY   = 288.6575

EPHEMERIS_TYPE = 0
CLASSIFICATION_TYPE = U
NORAD_CAT_ID   = 89177
ELEMENT_SET_NO = 999
REV_AT_EPOCH   = 6634
BSTAR          = .91335E-4
MEAN_MOTION_DOT = .101E-5
MEAN_MOTION_DDOT = 0

CCSDS_OMM_VERS = 2.0
CREATION_DATE  = 
ORIGINATOR     = 

OBJECT_NAME    = UNKNOWN
OBJECT_ID      = 
CENTER_NAME    = EARTH
REF_FRAME      = TEME
TIME_SYSTEM    = UTC
MEAN_ELEMENT_THEORY = SGP/SGP4

EPOCH          = 2026-01-09T11:56:34.251360
MEAN_MOTION    = 13.81616323
ECCENTRICITY   = .0131185
INCLINATION    = 99.2195
RA_OF_ASC_NODE = 284.9419
ARG_OF_PERICENTER = 82.5633
MEAN_ANOMALY   = 279.0404

EPHEMERIS_TYPE = 0
CLASSIFICATION_TYPE = U
NORAD_CAT_ID   = 89183
ELEMENT_SET_NO = 999
REV_AT_EPOCH   = 61080
BSTAR          = .56261E-3
MEAN_MOTION_DOT = .599E-5
MEAN_MOTION_DDOT = 0

CCSDS_OMM_VERS = 2.0
CREATION_DATE  = 
ORIGINATOR     = 

OBJECT_NAME    = UNKNOWN
OBJECT_ID      = 
CENTER_NAME    = EARTH
REF_FRAME      = TEME
TIME_SYSTEM    = UTC
MEAN_ELEMENT_THEORY = SGP/SGP4

EPOCH          = 2026-01-09T21:48:18.864288
MEAN_MOTION    = 14.82687484
ECCENTRICITY   = .0011796
INCLINATION    = 98.3879
RA_OF_ASC_NODE = 240.9667
ARG_OF_PERICENTER = 35.6906
MEAN_ANOMALY   = 324.5092

EPHEMERIS_TYPE = 0
CLASSIFICATION_TYPE = U
NORAD_CAT_ID   = 89184
ELEMENT_SET_NO = 999
REV_AT_EPOCH   = 49634
BSTAR          = .2597E-2
MEAN_MOTION_DOT = .20971E-3
MEAN_MOTION_DDOT = 0

CCSDS_OMM_VERS = 2.0
CREATION_DATE  = 
ORIGINATOR     = 

OBJECT_NAME    = UNKNOWN
OBJECT_ID      = 
CENTER_NAME    = EARTH
REF_FRAME      = TEME
TIME_SYSTEM    = UTC
MEAN_ELEMENT_THEORY = SGP/SGP4

EPOCH          = 2026-01-11T11:13:19.981632
MEAN_MOTION    = 13.91625451
ECCENTRICITY   = .0228462
INCLINATION    = 98.7780
RA_OF_ASC_NODE = 248.0486
ARG_OF_PERICENTER = 45.0145
MEAN_ANOMALY   = 316.9283

EPHEMERIS_TYPE = 0
CLASSIFICATION_TYPE = U
NORAD_CAT_ID   = 89213
ELEMENT_SET_NO = 999
REV_AT_EPOCH   = 45680
BSTAR          = .33378E-3
MEAN_MOTION_DOT = .484E-5
MEAN_MOTION_DDOT = 0

CCSDS_OMM_VERS = 2.0
CREATION_DATE  = 
ORIGINATOR     = 

OBJECT_NAME    = UNKNOWN
OBJECT_ID      = 
CENTER_NAME    = EARTH
REF_FRAME      = TEME
TIME_SYSTEM    = UTC
MEAN_ELEMENT_THEORY = SGP/SGP4

EPOCH          = 2026-01-11T00:01:33.204000
MEAN_MOTION    = 9.25382582
ECCENTRICITY   = .2830147
INCLINATION    = 62.4788
RA_OF_ASC_NODE = 325.1667
ARG_OF_PERICENTER = 103.3780
MEAN_ANOMALY   = 289.4506

EPHEMERIS_TYPE = 0
CLASSIFICATION_TYPE = U
NORAD_CAT_ID   = 89251
ELEMENT_SET_NO = 999
REV_AT_EPOCH   = 37589
BSTAR          = .47847E-2
MEAN_MOTION_DOT = .8154E-4
MEAN_MOTION_DDOT = 0

CCSDS_OMM_VERS = 2.0
CREATION_DATE  = 
ORIGINATOR     = 

OBJECT_NAME    = UNKNOWN
OBJECT_ID      = 
CENTER_NAME    = EARTH
REF_FRAME      = TEME
TIME_SYSTEM    = UTC
MEAN_ELEMENT_THEORY = SGP/SGP4

EPOCH          = 2026-01-08T05:45:35.930016
MEAN_MOTION    = 14.43180462
ECCENTRICITY   = .0013981
INCLINATION    = 98.1556
RA_OF_ASC_NODE = 6.5189
ARG_OF_PERICENTER = 79.3594
MEAN_ANOMALY   = 280.9171

EPHEMERIS_TYPE = 0
CLASSIFICATION_TYPE = U
NORAD_CAT_ID   = 89261
ELEMENT_SET_NO = 999
REV_AT_EPOCH   = 53763
BSTAR          = .34856E-3
MEAN_MOTION_DOT = .1132E-4
MEAN_MOTION_DDOT = 0

CCSDS_OMM_VERS = 2.0
CREATION_DATE  = 
ORIGINATOR     = 

OBJECT_NAME    = UNKNOWN
OBJECT_ID      = 
CENTER_NAME    = EARTH
REF_FRAME      = TEME
TIME_SYSTEM    = UTC
MEAN_ELEMENT_THEORY = SGP/SGP4

EPOCH          = 2026-01-07T12:17:55.006080
MEAN_MOTION    = 9.05031645
ECCENTRICITY   = .2862546
INCLINATION    = 84.3018
RA_OF_ASC_NODE = 97.1354
ARG_OF_PERICENTER = 312.2832
MEAN_ANOMALY   = 35.9082

EPHEMERIS_TYPE = 0
CLASSIFICATION_TYPE = U
NORAD_CAT_ID   = 89304
ELEMENT_SET_NO = 999
REV_AT_EPOCH   = 44073
BSTAR          = .32744E-1
MEAN_MOTION_DOT = .31055E-3
MEAN_MOTION_DDOT = 0

CCSDS_OMM_VERS = 2.0
CREATION_DATE  = 
ORIGINATOR     = 

OBJECT_NAME    = UNKNOWN
OBJECT_ID      = 
CENTER_NAME    = EARTH
REF_FRAME      = TEME
TIME_SYSTEM    = UTC
MEAN_ELEMENT_THEORY = SGP/SGP4

EPOCH          = 2026-01-10T16:59:20.686848
MEAN_MOTION    = 12.96256078
ECCENTRICITY   = .0029356
INCLINATION    = 90.2448
RA_OF_ASC_NODE = 7.9938
ARG_OF_PERICENTER = 187.6906
MEAN_ANOMALY   = 172.3768

EPHEMERIS_TYPE = 0
CLASSIFICATION_TYPE = U
NORAD_CAT_ID   = 89349
ELEMENT_SET_NO = 999
REV_AT_EPOCH   = 48250
BSTAR          = -.57396E-3
MEAN_MOTION_DOT = -.157E-5
MEAN_MOTION_DDOT = 0

